blk_no,street,road_name,address,latiude,longtitude,postal
101B,PUNGGOL FIELD,PUNGGOL FIELD,101B PUNGGOL FIELD HDB-PUNGGOL SINGAPORE 822101,1.397847151,103.9064361,822101
101B,PUNGGOL FIELD,PUNGGOL FIELD,101B PUNGGOL FIELD HDB-PUNGGOL SINGAPORE 822101,1.397847151,103.9064361,822101
101,PUNGGOL FIELD,PUNGGOL FIELD,101 PUNGGOL FIELD MULTI STOREY CAR PARK SINGAPORE 820101,1.398481661,103.9058081,820101
101A,PUNGGOL FIELD,PUNGGOL FIELD,101A PUNGGOL FIELD HDB-PUNGGOL SINGAPORE 821101,1.397946168,103.9059451,821101
101C,PUNGGOL FIELD,PUNGGOL FIELD,101C PUNGGOL FIELD HDB-PUNGGOL SINGAPORE 823101,1.398090458,103.9065693,823101
101D,PUNGGOL FIELD,PUNGGOL FIELD,101D PUNGGOL FIELD HDB-PUNGGOL SINGAPORE 824101,1.398484785,103.9061439,824101
102,PUNGGOL FIELD,PUNGGOL FIELD,102A PUNGGOL FIELD HDB-PUNGGOL SINGAPORE 821102,1.398833183,103.9057836,821102
102A,PUNGGOL FIELD,PUNGGOL FIELD,102A PUNGGOL FIELD HDB-PUNGGOL SINGAPORE 821102,1.398833183,103.9057836,821102
102B,PUNGGOL FIELD,PUNGGOL FIELD,102B PUNGGOL FIELD HDB-PUNGGOL SINGAPORE 822102,1.399085258,103.9054714,822102
102C,PUNGGOL FIELD,PUNGGOL FIELD,102C PUNGGOL FIELD HDB-PUNGGOL SINGAPORE 823102,1.398761278,103.904939,823102
102D,PUNGGOL FIELD,PUNGGOL FIELD,102D PUNGGOL FIELD HDB-PUNGGOL SINGAPORE 824102,1.398480708,103.9052498,824102
103,EDGEFIELD PLAINS,EDGEFIELD PLAINS,103A EDGEFIELD PLAINS SINGAPORE 821103,1.398255318,103.904754,821103
103A,EDGEFIELD PLAINS,EDGEFIELD PLAINS,103A EDGEFIELD PLAINS SINGAPORE 821103,1.398255318,103.904754,821103
103B,EDGEFIELD PLAINS,EDGEFIELD PLAINS,103B EDGEFIELD PLAINS SINGAPORE 822103,1.397731275,103.9046854,822103
103C,EDGEFIELD PLAINS,EDGEFIELD PLAINS,103C EDGEFIELD PLAINS SINGAPORE 823103,1.397266608,103.9045384,823103
104A,EDGEFIELD PLAINS,EDGEFIELD PLAINS,104A EDGEFIELD PLAINS SINGAPORE 821104,1.396805705,103.9050542,821104
104B,EDGEFIELD PLAINS,EDGEFIELD PLAINS,104B EDGEFIELD PLAINS SINGAPORE 822104,1.396608862,103.9053038,822104
105,EDGEFIELD PLAINS,EDGEFIELD PLAINS,105 EDGEFIELD PLAINS MULTI STOREY CAR PARK SINGAPORE 820105,1.397229386,103.9055909,820105
105A,EDGEFIELD PLAINS,EDGEFIELD PLAINS,105A EDGEFIELD PLAINS SINGAPORE 821105,1.396941332,103.9057295,821105
105B,EDGEFIELD PLAINS,EDGEFIELD PLAINS,105B EDGEFIELD PLAINS SINGAPORE 822105,1.397206464,103.9060023,822105
105C,EDGEFIELD PLAINS,EDGEFIELD PLAINS,105C EDGEFIELD PLAINS SINGAPORE 823105,1.397672035,103.9055988,823105
105D,EDGEFIELD PLAINS,EDGEFIELD PLAINS,105D EDGEFIELD PLAINS SINGAPORE 824105,1.397175309,103.9052296,824105
106,PUNGGOL FIELD,PUNGGOL FIELD,106 PUNGGOL FIELD SINGAPORE 820106,1.396391853,103.9082918,820106
106A,PUNGGOL FIELD,PUNGGOL FIELD,106A PUNGGOL FIELD HDB-PUNGGOL SINGAPORE 821106,1.396604861,103.9083441,821106
106B,PUNGGOL FIELD,PUNGGOL FIELD,106B PUNGGOL FIELD HDB-PUNGGOL SINGAPORE 822106,1.397094532,103.9079554,822106
106C,PUNGGOL FIELD,PUNGGOL FIELD,106C PUNGGOL FIELD HDB-PUNGGOL SINGAPORE 823106,1.397366642,103.9075622,823106
106D,PUNGGOL FIELD,PUNGGOL FIELD,106D PUNGGOL FIELD HDB-PUNGGOL SINGAPORE 824106,1.397626067,103.9073581,824106
107,PUNGGOL FIELD,PUNGGOL FIELD,107 PUNGGOL FIELD SINGAPORE 820107,1.396934565,103.9077067,820107
107A,EDGEFIELD PLAINS,EDGEFIELD PLAINS,107A EDGEFIELD PLAINS SINGAPORE 821107,1.397198794,103.9068258,821107
107B,EDGEFIELD PLAINS,EDGEFIELD PLAINS,107B EDGEFIELD PLAINS SINGAPORE 822107,1.396837235,103.9072482,822107
107C,EDGEFIELD PLAINS,EDGEFIELD PLAINS,107C EDGEFIELD PLAINS SINGAPORE 823107,1.396621521,103.9076007,823107
107D,EDGEFIELD PLAINS,EDGEFIELD PLAINS,107D EDGEFIELD PLAINS SINGAPORE 824107,1.396238035,103.9080073,824107
108,PUNGGOL FIELD,PUNGGOL FIELD,108 PUNGGOL FIELD SINGAPORE 820108,1.396498616,103.9088663,820108
109,PUNGGOL FIELD,PUNGGOL FIELD,109 PUNGGOL FIELD SINGAPORE 820109,1.395438127,103.9095324,820109
109A,EDGEDALE PLAINS,EDGEDALE PLAINS,109A EDGEDALE PLAINS HDB-PUNGGOL SINGAPORE 821109,1.394721864,103.9098738,821109
109B,EDGEDALE PLAINS,EDGEDALE PLAINS,109B EDGEDALE PLAINS HDB-PUNGGOL SINGAPORE 822109,1.394956962,103.9096342,822109
109C,EDGEDALE PLAINS,EDGEDALE PLAINS,109C EDGEDALE PLAINS HDB-PUNGGOL SINGAPORE 823109,1.39517272,103.9092816,823109
109D,EDGEDALE PLAINS,EDGEDALE PLAINS,109D EDGEDALE PLAINS HDB-PUNGGOL SINGAPORE 824109,1.395529913,103.9088596,824109
110,PUNGGOL FIELD,PUNGGOL FIELD,110 PUNGGOL FIELD SINGAPORE 820110,1.395908522,103.9088823,820110
110A,PUNGGOL FIELD,PUNGGOL FIELD,110A PUNGGOL FIELD HDB-PUNGGOL SINGAPORE 821110,1.396124003,103.9092837,821110
110B,PUNGGOL FIELD,PUNGGOL FIELD,110B PUNGGOL FIELD HDB-PUNGGOL SINGAPORE 822110,1.395660239,103.909627,822110
110C,PUNGGOL FIELD,PUNGGOL FIELD,110C PUNGGOL FIELD HDB-PUNGGOL SINGAPORE 823110,1.395397332,103.910034,823110
110D,PUNGGOL FIELD,PUNGGOL FIELD,110D PUNGGOL FIELD HDB-PUNGGOL SINGAPORE 824110,1.395000712,103.910206,824110
111,EDGEFIELD PLAINS,EDGEFIELD PLAINS,111 EDGEFIELD PLAINS SINGAPORE 820111,1.396677886,103.9065791,820111
112,EDGEFIELD PLAINS,EDGEFIELD PLAINS,112 EDGEFIELD PLAINS SINGAPORE 820112,1.396245169,103.9070873,820112
113,EDGEFIELD PLAINS,EDGEFIELD PLAINS,113 EDGEFIELD PLAINS SINGAPORE 820113,1.396011592,103.9071815,820113
114,EDGEFIELD PLAINS,EDGEFIELD PLAINS,114 EDGEFIELD PLAINS SINGAPORE 820114,1.395799718,103.9075556,820114
115,EDGEFIELD PLAINS,EDGEFIELD PLAINS,115 EDGEFIELD PLAINS SINGAPORE 820115,1.395128547,103.9072584,820115
116,EDGEFIELD PLAINS,EDGEFIELD PLAINS,116 EDGEFIELD PLAINS SINGAPORE 820116,1.39541568,103.9069122,820116
117,EDGEFIELD PLAINS,EDGEFIELD PLAINS,117 EDGEFIELD PLAINS SINGAPORE 820117,1.395787352,103.9066178,820117
118,EDGEFIELD PLAINS,EDGEFIELD PLAINS,118 EDGEFIELD PLAINS SINGAPORE 820118,1.396207066,103.9061471,820118
119,EDGEFIELD PLAINS,EDGEFIELD PLAINS,119 EDGEFIELD PLAINS MULTI STOREY CAR PARK SINGAPORE 820119,1.395453225,103.9065145,820119
120,EDGEDALE PLAINS,EDGEDALE PLAINS,120A EDGEDALE PLAINS PUNGGOL EDGE SINGAPORE 821120,1.394512179,103.9079643,821120
120A,EDGEDALE PLAINS,EDGEDALE PLAINS,120A EDGEDALE PLAINS PUNGGOL EDGE SINGAPORE 821120,1.394512179,103.9079643,821120
120B,EDGEDALE PLAINS,EDGEDALE PLAINS,120B EDGEDALE PLAINS PUNGGOL EDGE SINGAPORE 822120,1.394837781,103.9075847,822120
121,EDGEDALE PLAINS,EDGEDALE PLAINS,121 EDGEDALE PLAINS PUNGGOL EDGE SINGAPORE 820121,1.393682194,103.9082995,820121
121A,EDGEDALE PLAINS,EDGEDALE PLAINS,121A EDGEDALE PLAINS PUNGGOL EDGE SINGAPORE 821121,1.394002346,103.9086283,821121
121B,EDGEDALE PLAINS,EDGEDALE PLAINS,121B EDGEDALE PLAINS PUNGGOL EDGE SINGAPORE 822121,1.393088703,103.9090418,822121
122,EDGEDALE PLAINS,EDGEDALE PLAINS,122B EDGEDALE PLAINS PUNGGOL EDGE SINGAPORE 822122,1.394150091,103.909596,822122
122A,EDGEDALE PLAINS,EDGEDALE PLAINS,122A EDGEDALE PLAINS PUNGGOL EDGE SINGAPORE 821122,1.393509812,103.9091066,821122
122B,EDGEDALE PLAINS,EDGEDALE PLAINS,122B EDGEDALE PLAINS PUNGGOL EDGE SINGAPORE 822122,1.394150091,103.909596,822122
614,EDGEFIELD PLAINS,EDGEFIELD PLAINS,614 EDGEFIELD PLAINS PUNGGOL SPRING SINGAPORE 820614,1.403314508,103.9096798,820614
614A,EDGEFIELD PLAINS,EDGEFIELD PLAINS,614A EDGEFIELD PLAINS PUNGGOL SPRING SINGAPORE 821614,1.403584212,103.9092641,821614
614B,EDGEFIELD PLAINS,EDGEFIELD PLAINS,614B EDGEFIELD PLAINS PUNGGOL SPRING SINGAPORE 822614,1.402903237,103.9100575,822614
615,EDGEFIELD PLAINS,EDGEFIELD PLAINS,615A EDGEFIELD PLAINS PUNGGOL SPRING SINGAPORE 821615,1.403860564,103.909541,821615
615A,EDGEFIELD PLAINS,EDGEFIELD PLAINS,615A EDGEFIELD PLAINS PUNGGOL SPRING SINGAPORE 821615,1.403860564,103.909541,821615
615B,EDGEFIELD PLAINS,EDGEFIELD PLAINS,615B EDGEFIELD PLAINS PUNGGOL SPRING SINGAPORE 822615,1.403745882,103.9098829,822615
615C,EDGEFIELD PLAINS,EDGEFIELD PLAINS,615C EDGEFIELD PLAINS PUNGGOL SPRING SINGAPORE 823615,1.403558837,103.9101535,823615
125,EDGEDALE PLAINS,EDGEDALE PLAINS,125 EDGEDALE PLAINS SINGAPORE 820125,1.393926881,103.9113702,820125
126,EDGEDALE PLAINS,EDGEDALE PLAINS,126 EDGEDALE PLAINS MULTI STOREY CAR PARK SINGAPORE 820126,1.394272718,103.9109218,820126
126A,EDGEDALE PLAINS,EDGEDALE PLAINS,126A EDGEDALE PLAINS HDB-PUNGGOL SINGAPORE 821126,1.39410055,103.9113562,821126
126B,EDGEDALE PLAINS,EDGEDALE PLAINS,126B EDGEDALE PLAINS HDB-PUNGGOL SINGAPORE 822126,1.394548891,103.9111062,822126
126C,EDGEDALE PLAINS,EDGEDALE PLAINS,126C EDGEDALE PLAINS HDB-PUNGGOL SINGAPORE 823126,1.393970531,103.9106636,823126
126D,EDGEDALE PLAINS,EDGEDALE PLAINS,126D EDGEDALE PLAINS HDB-PUNGGOL SINGAPORE 824126,1.393783889,103.9109815,824126
129,EDGEDALE PLAINS,EDGEDALE PLAINS,129 EDGEDALE PLAINS SINGAPORE 820129,1.393162798,103.9103822,820129
130,EDGEDALE PLAINS,EDGEDALE PLAINS,130 EDGEDALE PLAINS HDB-PUNGGOL SINGAPORE 820130,1.393172994,103.9100553,820130
131,EDGEDALE PLAINS,EDGEDALE PLAINS,131 EDGEDALE PLAINS MULTI STOREY CAR PARK SINGAPORE 820131,1.393599214,103.9103808,820131
132,EDGEDALE PLAINS,EDGEDALE PLAINS,132 EDGEDALE PLAINS HDB-PUNGGOL SINGAPORE 820132,1.393069499,103.9106985,820132
133,EDGEDALE PLAINS,EDGEDALE PLAINS,133 EDGEDALE PLAINS HDB-PUNGGOL SINGAPORE 820133,1.392831554,103.9106201,820133
134,EDGEDALE PLAINS,EDGEDALE PLAINS,134 EDGEDALE PLAINS HDB-PUNGGOL SINGAPORE 820134,1.392335405,103.9101808,820134
135,EDGEDALE PLAINS,EDGEDALE PLAINS,135 EDGEDALE PLAINS HDB-PUNGGOL SINGAPORE 820135,1.392092062,103.9100225,820135
136,EDGEDALE PLAINS,EDGEDALE PLAINS,136 EDGEDALE PLAINS SINGAPORE 820136,1.39174363,103.9098125,820136
137,EDGEDALE PLAINS,EDGEDALE PLAINS,137 EDGEDALE PLAINS MULTI STOREY CAR PARK SINGAPORE 820137,1.3923882,103.9093911,820137
138,EDGEDALE PLAINS,EDGEDALE PLAINS,138 EDGEDALE PLAINS HDB-PUNGGOL SINGAPORE 820138,1.392771159,103.9097962,820138
658,PUNGGOL EAST,PUNGGOL EAST,658A PUNGGOL EAST WATERWAY SUNRAY SINGAPORE 821658,1.400175685,103.9197201,821658
658A,PUNGGOL EAST,PUNGGOL EAST,658A PUNGGOL EAST WATERWAY SUNRAY SINGAPORE 821658,1.400175685,103.9197201,821658
658B,PUNGGOL EAST,PUNGGOL EAST,658B PUNGGOL EAST WATERWAY SUNRAY SINGAPORE 822658,1.400212828,103.9190528,822658
658C,PUNGGOL EAST,PUNGGOL EAST,658C PUNGGOL EAST WATERWAY SUNRAY SINGAPORE 823658,1.400549817,103.9186502,823658
659,PUNGGOL EAST,PUNGGOL EAST,659 PUNGGOL EAST WATERWAY SUNRAY SINGAPORE 820659,1.401021619,103.9195784,820659
659A,PUNGGOL EAST,PUNGGOL EAST,659A PUNGGOL EAST WATERWAY SUNRAY SINGAPORE 821659,1.400527833,103.9197574,821659
659B,PUNGGOL EAST,PUNGGOL EAST,659B PUNGGOL EAST WATERWAY SUNRAY SINGAPORE 822659,1.400746549,103.9191493,822659
659C,PUNGGOL EAST,PUNGGOL EAST,659C PUNGGOL EAST WATERWAY SUNRAY SINGAPORE 823659,1.401225385,103.9191307,823659
659D,PUNGGOL EAST,PUNGGOL EAST,659D PUNGGOL EAST WATERWAY SUNRAY SINGAPORE 824659,1.400929148,103.9188836,824659
660,EDGEDALE PLAINS,EDGEDALE PLAINS,660 EDGEDALE PLAINS WATERWAY SUNDEW SINGAPORE 820660,1.402857184,103.9167749,820660
660A,EDGEDALE PLAINS,EDGEDALE PLAINS,660A EDGEDALE PLAINS WATERWAY SUNDEW SINGAPORE 821660,1.402621973,103.9165196,821660
661,EDGEDALE PLAINS,EDGEDALE PLAINS,661 EDGEDALE PLAINS WATERWAY SUNDEW SINGAPORE 820661,1.402362738,103.9176456,820661
661A,EDGEDALE PLAINS,EDGEDALE PLAINS,661A EDGEDALE PLAINS WATERWAY SUNDEW SINGAPORE 821661,1.403030566,103.9170807,821661
661B,EDGEDALE PLAINS,EDGEDALE PLAINS,661B EDGEDALE PLAINS WATERWAY SUNDEW SINGAPORE 822661,1.402485648,103.9167514,822661
661C,EDGEDALE PLAINS,EDGEDALE PLAINS,661C EDGEDALE PLAINS WATERWAY SUNDEW SINGAPORE 823661,1.402071587,103.91748,823661
662,EDGEDALE PLAINS,EDGEDALE PLAINS,662B EDGEDALE PLAINS WATERWAY SUNDEW SINGAPORE 822662,1.401721537,103.918691,822662
662A,EDGEDALE PLAINS,EDGEDALE PLAINS,662A EDGEDALE PLAINS WATERWAY SUNDEW SINGAPORE 821662,1.402004486,103.9183264,821662
662B,EDGEDALE PLAINS,EDGEDALE PLAINS,662B EDGEDALE PLAINS WATERWAY SUNDEW SINGAPORE 822662,1.401721537,103.918691,822662
662C,EDGEDALE PLAINS,EDGEDALE PLAINS,662C EDGEDALE PLAINS WATERWAY SUNDEW SINGAPORE 823662,1.401391816,103.9185139,823662
662D,EDGEDALE PLAINS,EDGEDALE PLAINS,662D EDGEDALE PLAINS WATERWAY SUNDEW SINGAPORE 824662,1.40167256,103.9180028,824662
668,EDGEFIELD PLAINS,EDGEFIELD PLAINS,668 EDGEFIELD PLAINS WATERWAY RIDGES SINGAPORE 820668,1.405107594,103.9130724,820668
668A,EDGEFIELD PLAINS,EDGEFIELD PLAINS,668A EDGEFIELD PLAINS WATERWAY RIDGES SINGAPORE 821668,1.405018801,103.9124119,821668
668B,EDGEFIELD PLAINS,EDGEFIELD PLAINS,668B EDGEFIELD PLAINS WATERWAY RIDGES SINGAPORE 822668,1.404782919,103.9129785,822668
669,EDGEFIELD PLAINS,EDGEFIELD PLAINS,669 EDGEFIELD PLAINS WATERWAY RIDGES SINGAPORE 820669,1.4052044,103.913815,820669
669A,EDGEFIELD PLAINS,EDGEFIELD PLAINS,669A EDGEFIELD PLAINS WATERWAY RIDGES SINGAPORE 821669,1.404909749,103.9139695,821669
669B,EDGEFIELD PLAINS,EDGEFIELD PLAINS,669B EDGEFIELD PLAINS WATERWAY RIDGES SINGAPORE 822669,1.404536069,103.9140128,822669
670,EDGEFIELD PLAINS,EDGEFIELD PLAINS,670 EDGEFIELD PLAINS WATERWAY RIDGES SINGAPORE 820670,1.405822436,103.9132458,820670
670A,EDGEFIELD PLAINS,EDGEFIELD PLAINS,670A EDGEFIELD PLAINS WATERWAY RIDGES SINGAPORE 821670,1.405383412,103.9129608,821670
670B,EDGEFIELD PLAINS,EDGEFIELD PLAINS,670B EDGEFIELD PLAINS WATERWAY RIDGES SINGAPORE 822670,1.40532418,103.9132807,822670
670C,EDGEFIELD PLAINS,EDGEFIELD PLAINS,670C EDGEFIELD PLAINS WATERWAY RIDGES SINGAPORE 823670,1.405342858,103.9139333,823670
671,EDGEFIELD PLAINS,EDGEFIELD PLAINS,671B EDGEFIELD PLAINS WATERWAY BANKS SINGAPORE 822671,1.406191183,103.9116993,822671
671A,EDGEFIELD PLAINS,EDGEFIELD PLAINS,671A EDGEFIELD PLAINS WATERWAY BANKS SINGAPORE 821671,1.406059242,103.9120207,821671
671B,EDGEFIELD PLAINS,EDGEFIELD PLAINS,671B EDGEFIELD PLAINS WATERWAY BANKS SINGAPORE 822671,1.406191183,103.9116993,822671
672,EDGEFIELD PLAINS,EDGEFIELD PLAINS,672 EDGEFIELD PLAINS WATERWAY BANKS SINGAPORE 820672,1.40706369,103.9117556,820672
672A,EDGEFIELD PLAINS,EDGEFIELD PLAINS,672A EDGEFIELD PLAINS WATERWAY BANKS SINGAPORE 821672,1.406414151,103.9126204,821672
672B,EDGEFIELD PLAINS,EDGEFIELD PLAINS,672B EDGEFIELD PLAINS WATERWAY BANKS SINGAPORE 822672,1.40665275,103.9123125,822672
672C,EDGEFIELD PLAINS,EDGEFIELD PLAINS,672C EDGEFIELD PLAINS WATERWAY BANKS SINGAPORE 823672,1.407437024,103.9111965,823672
672D,EDGEFIELD PLAINS,EDGEFIELD PLAINS,672D EDGEFIELD PLAINS WATERWAY BANKS SINGAPORE 824672,1.407590312,103.9109236,824672
673,EDGEFIELD PLAINS,EDGEFIELD PLAINS,673A EDGEFIELD PLAINS WATERWAY BANKS SINGAPORE 821673,1.406676726,103.9116133,821673
673A,EDGEFIELD PLAINS,EDGEFIELD PLAINS,673A EDGEFIELD PLAINS WATERWAY BANKS SINGAPORE 821673,1.406676726,103.9116133,821673
673B,EDGEFIELD PLAINS,EDGEFIELD PLAINS,673B EDGEFIELD PLAINS WATERWAY BANKS SINGAPORE 822673,1.406977629,103.9110415,822673
673C,EDGEFIELD PLAINS,EDGEFIELD PLAINS,673C EDGEFIELD PLAINS WATERWAY BANKS SINGAPORE 823673,1.407221594,103.9105919,823673
674,EDGEFIELD PLAINS,EDGEFIELD PLAINS,674 EDGEFIELD PLAINS WATERWAY BANKS SINGAPORE 820674,1.407213715,103.9103675,820674
167,PUNGGOL EAST,PUNGGOL EAST,167C PUNGGOL EAST THE SUNDIAL SINGAPORE 823167,1.394388962,103.9147524,823167
167A,PUNGGOL EAST,PUNGGOL EAST,167A PUNGGOL EAST THE SUNDIAL SINGAPORE 821167,1.393908248,103.9151069,821167
167B,PUNGGOL EAST,PUNGGOL EAST,167B PUNGGOL EAST THE SUNDIAL SINGAPORE 822167,1.394227136,103.9149774,822167
167C,PUNGGOL EAST,PUNGGOL EAST,167C PUNGGOL EAST THE SUNDIAL SINGAPORE 823167,1.394388962,103.9147524,823167
167D,PUNGGOL EAST,PUNGGOL EAST,167D PUNGGOL EAST THE SUNDIAL SINGAPORE 824167,1.394548399,103.9145293,824167
168,PUNGGOL FIELD,PUNGGOL FIELD,168C PUNGGOL FIELD THE NAUTILUS @ PUNGGOL SINGAPORE 823168,1.393903151,103.9137768,823168
168A,PUNGGOL EAST,PUNGGOL EAST,168A PUNGGOL EAST THE SUNDIAL SINGAPORE 821168,1.394589169,103.9142388,821168
168B,PUNGGOL EAST,PUNGGOL EAST,168B PUNGGOL EAST THE SUNDIAL SINGAPORE 822168,1.394496029,103.913979,822168
682,EDGEDALE PLAINS,EDGEDALE PLAINS,682 EDGEDALE PLAINS WATERWAY VIEW SINGAPORE 820682,1.404032793,103.9157938,820682
682A,EDGEDALE PLAINS,EDGEDALE PLAINS,682A EDGEDALE PLAINS WATERWAY VIEW SINGAPORE 821682,1.403547749,103.9162913,821682
682B,EDGEDALE PLAINS,EDGEDALE PLAINS,682B EDGEDALE PLAINS WATERWAY VIEW SINGAPORE 822682,1.403411731,103.915952,822682
682C,EDGEDALE PLAINS,EDGEDALE PLAINS,682C EDGEDALE PLAINS WATERWAY VIEW SINGAPORE 823682,1.403619895,103.9155247,823682
683,EDGEDALE PLAINS,EDGEDALE PLAINS,683 EDGEDALE PLAINS WATERWAY VIEW SINGAPORE 820683,1.404152091,103.9151881,820683
683A,EDGEDALE PLAINS,EDGEDALE PLAINS,683A EDGEDALE PLAINS WATERWAY VIEW SINGAPORE 821683,1.404263444,103.9153714,821683
683B,EDGEDALE PLAINS,EDGEDALE PLAINS,683B EDGEDALE PLAINS WATERWAY VIEW SINGAPORE 822683,1.404701058,103.9149881,822683
683C,EDGEDALE PLAINS,EDGEDALE PLAINS,683C EDGEDALE PLAINS WATERWAY VIEW SINGAPORE 823683,1.404073549,103.9146487,823683
684,EDGEDALE PLAINS,EDGEDALE PLAINS,684 EDGEDALE PLAINS WATERWAY VIEW SINGAPORE 820684,1.403144479,103.9160658,820684
684A,EDGEDALE PLAINS,EDGEDALE PLAINS,684A EDGEDALE PLAINS WATERWAY VIEW SINGAPORE 821684,1.402793795,103.9158786,821684
684B,EDGEDALE PLAINS,EDGEDALE PLAINS,684B EDGEDALE PLAINS WATERWAY VIEW SINGAPORE 822684,1.403027132,103.9150056,822684
684C,EDGEDALE PLAINS,EDGEDALE PLAINS,684C EDGEDALE PLAINS WATERWAY VIEW SINGAPORE 823684,1.403492387,103.9147653,823684
684D,EDGEDALE PLAINS,EDGEDALE PLAINS,684D EDGEDALE PLAINS WATERWAY VIEW SINGAPORE 824684,1.403651736,103.9140948,824684
168C,PUNGGOL FIELD,PUNGGOL FIELD,168C PUNGGOL FIELD THE NAUTILUS @ PUNGGOL SINGAPORE 823168,1.393903151,103.9137768,823168
168D,PUNGGOL FIELD,PUNGGOL FIELD,168D PUNGGOL FIELD THE NAUTILUS @ PUNGGOL SINGAPORE 824168,1.393746768,103.9140016,824168
169,PUNGGOL FIELD,PUNGGOL FIELD,169 PUNGGOL FIELD THE NAUTILUS @ PUNGGOL SINGAPORE 820169,1.393698943,103.9144004,820169
169A,PUNGGOL FIELD,PUNGGOL FIELD,169A PUNGGOL FIELD THE NAUTILUS @ PUNGGOL SINGAPORE 821169,1.393082747,103.9142822,821169
169B,PUNGGOL FIELD,PUNGGOL FIELD,169B PUNGGOL FIELD THE NAUTILUS @ PUNGGOL SINGAPORE 822169,1.393224665,103.9140677,822169
169C,PUNGGOL FIELD,PUNGGOL FIELD,169C PUNGGOL FIELD THE NAUTILUS @ PUNGGOL SINGAPORE 823169,1.393621092,103.9142236,823169
175,PUNGGOL FIELD,PUNGGOL FIELD,175 PUNGGOL FIELD MULTI STOREY CAR PARK SINGAPORE 820175,1.398154006,103.9086268,820175
170A,PUNGGOL FIELD,PUNGGOL FIELD,170A PUNGGOL FIELD THE NAUTILUS @ PUNGGOL SINGAPORE 821170,1.393560948,103.9148607,821170
170B,PUNGGOL FIELD,PUNGGOL FIELD,170B PUNGGOL FIELD THE NAUTILUS @ PUNGGOL SINGAPORE 822170,1.393337746,103.9147009,822170
170C,PUNGGOL FIELD,PUNGGOL FIELD,170C PUNGGOL FIELD THE NAUTILUS @ PUNGGOL SINGAPORE 823170,1.393107842,103.9145464,823170
170D,PUNGGOL EAST,PUNGGOL EAST,170D PUNGGOL EAST THE SUNDIAL SINGAPORE 824170,1.394060228,103.9150696,824170
171,EDGEDALE PLAINS,EDGEDALE PLAINS,171 EDGEDALE PLAINS MULTI STOREY CAR PARK SINGAPORE 820171,1.394879981,103.9125801,820171
171A,EDGEDALE PLAINS,EDGEDALE PLAINS,171A EDGEDALE PLAINS HDB-PUNGGOL SINGAPORE 821171,1.394630782,103.9122939,821171
171B,EDGEDALE PLAINS,EDGEDALE PLAINS,171B EDGEDALE PLAINS HDB-PUNGGOL SINGAPORE 822171,1.394977318,103.9127175,822171
171C,EDGEDALE PLAINS,EDGEDALE PLAINS,171C EDGEDALE PLAINS HDB-PUNGGOL SINGAPORE 823171,1.394775289,103.9134368,823171
172,EDGEDALE PLAINS,EDGEDALE PLAINS,172 EDGEDALE PLAINS MULTI STOREY CAR PARK SINGAPORE 820172,1.395528666,103.9117904,820172
172A,EDGEDALE PLAINS,EDGEDALE PLAINS,172A EDGEDALE PLAINS SINGAPORE 821172,1.39533468,103.9114339,821172
172B,EDGEDALE PLAINS,EDGEDALE PLAINS,172B EDGEDALE PLAINS SINGAPORE 822172,1.395724021,103.9118054,822172
172C,EDGEDALE PLAINS,EDGEDALE PLAINS,172C EDGEDALE PLAINS SINGAPORE 823172,1.395444577,103.9124654,823172
172D,EDGEDALE PLAINS,EDGEDALE PLAINS,172D EDGEDALE PLAINS SINGAPORE 824172,1.395007844,103.9119582,824172
173,PUNGGOL FIELD,PUNGGOL FIELD,173B PUNGGOL FIELD HDB-PUNGGOL SINGAPORE 822173,1.396550267,103.910063,822173
173A,PUNGGOL FIELD,PUNGGOL FIELD,173A PUNGGOL FIELD HDB-PUNGGOL SINGAPORE 821173,1.397013086,103.9093541,821173
173B,PUNGGOL FIELD,PUNGGOL FIELD,173B PUNGGOL FIELD HDB-PUNGGOL SINGAPORE 822173,1.396550267,103.910063,822173
173C,PUNGGOL FIELD,PUNGGOL FIELD,173C PUNGGOL FIELD HDB-PUNGGOL SINGAPORE 823173,1.396185406,103.9105619,823173
173D,PUNGGOL FIELD,PUNGGOL FIELD,173D PUNGGOL FIELD HDB-PUNGGOL SINGAPORE 824173,1.396007992,103.9107647,824173
174,PUNGGOL FIELD,PUNGGOL FIELD,174 PUNGGOL FIELD MULTI STOREY CAR PARK SINGAPORE 820174,1.396740789,103.9103325,820174
174A,EDGEDALE PLAINS,EDGEDALE PLAINS,174A EDGEDALE PLAINS HDB-PUNGGOL SINGAPORE 821174,1.39637824,103.9112808,821174
174B,EDGEDALE PLAINS,EDGEDALE PLAINS,174B EDGEDALE PLAINS HDB-PUNGGOL SINGAPORE 822174,1.396731877,103.9108129,822174
174C,EDGEDALE PLAINS,EDGEDALE PLAINS,174C EDGEDALE PLAINS HDB-PUNGGOL SINGAPORE 823174,1.396973051,103.9104245,823174
174D,EDGEDALE PLAINS,EDGEDALE PLAINS,174D EDGEDALE PLAINS HDB-PUNGGOL SINGAPORE 824174,1.397359333,103.9101188,824174
175A,PUNGGOL FIELD,PUNGGOL FIELD,175A PUNGGOL FIELD HDB-PUNGGOL SINGAPORE 821175,1.397404216,103.9089737,821175
175B,PUNGGOL FIELD,PUNGGOL FIELD,175B PUNGGOL FIELD HDB-PUNGGOL SINGAPORE 822175,1.397770531,103.9086476,822175
175C,PUNGGOL FIELD,PUNGGOL FIELD,175C PUNGGOL FIELD HDB-PUNGGOL SINGAPORE 823175,1.398134688,103.9081481,823175
175D,PUNGGOL FIELD,PUNGGOL FIELD,175D PUNGGOL FIELD HDB-PUNGGOL SINGAPORE 824175,1.398470605,103.9077693,824175
176,EDGEFIELD PLAINS,EDGEFIELD PLAINS,176B EDGEFIELD PLAINS SINGAPORE 822176,1.398557354,103.908509,822176
176A,EDGEFIELD PLAINS,EDGEFIELD PLAINS,176A EDGEFIELD PLAINS SINGAPORE 821176,1.398860781,103.9082666,821176
176B,EDGEFIELD PLAINS,EDGEFIELD PLAINS,176B EDGEFIELD PLAINS SINGAPORE 822176,1.398557354,103.908509,822176
176C,EDGEFIELD PLAINS,EDGEFIELD PLAINS,176C EDGEFIELD PLAINS SINGAPORE 823176,1.398310553,103.9087837,823176
176D,EDGEFIELD PLAINS,EDGEFIELD PLAINS,176D EDGEFIELD PLAINS SINGAPORE 824176,1.397942406,103.9094482,824176
178,EDGEFIELD PLAINS,EDGEFIELD PLAINS,178 EDGEFIELD PLAINS SINGAPORE 820178,1.399406544,103.908431,820178
179,EDGEFIELD PLAINS,EDGEFIELD PLAINS,179 EDGEFIELD PLAINS SINGAPORE 820179,1.399543911,103.9089291,820179
180,EDGEFIELD PLAINS,EDGEFIELD PLAINS,180 EDGEFIELD PLAINS MULTI STOREY CAR PARK SINGAPORE 820180,1.398612241,103.9093498,820180
181,EDGEFIELD PLAINS,EDGEFIELD PLAINS,181 EDGEFIELD PLAINS SINGAPORE 820181,1.399144305,103.9089833,820181
182,EDGEFIELD PLAINS,EDGEFIELD PLAINS,182 EDGEFIELD PLAINS SINGAPORE 820182,1.398921796,103.9093113,820182
183,EDGEFIELD PLAINS,EDGEFIELD PLAINS,183 EDGEFIELD PLAINS SINGAPORE 820183,1.398810031,103.9098456,820183
184,EDGEFIELD PLAINS,EDGEFIELD PLAINS,184 EDGEFIELD PLAINS SINGAPORE 820184,1.398515832,103.9101406,820184
185,EDGEFIELD PLAINS,EDGEFIELD PLAINS,185 EDGEFIELD PLAINS SINGAPORE 820185,1.398068147,103.9101669,820185
193,EDGEFIELD PLAINS,EDGEFIELD PLAINS,193 EDGEFIELD PLAINS SINGAPORE 820193,1.399967929,103.909013,820193
196,PUNGGOL FIELD,PUNGGOL FIELD,196 PUNGGOL FIELD MULTI STOREY CAR PARK SINGAPORE 820196,1.399368899,103.907059,820196
196A,PUNGGOL FIELD,PUNGGOL FIELD,196A PUNGGOL FIELD HDB-PUNGGOL SINGAPORE 821196,1.399203942,103.9067408,821196
196B,PUNGGOL FIELD,PUNGGOL FIELD,196B PUNGGOL FIELD HDB-PUNGGOL SINGAPORE 822196,1.399007111,103.9069906,822196
196C,PUNGGOL FIELD,PUNGGOL FIELD,196C PUNGGOL FIELD HDB-PUNGGOL SINGAPORE 823196,1.399279585,103.9074976,823196
196D,PUNGGOL FIELD,PUNGGOL FIELD,196D PUNGGOL FIELD HDB-PUNGGOL SINGAPORE 824196,1.399660814,103.9072345,824196
197,PUNGGOL FIELD,PUNGGOL FIELD,197B PUNGGOL FIELD HDB-PUNGGOL SINGAPORE 822197,1.400131511,103.9066476,822197
197A,PUNGGOL FIELD,PUNGGOL FIELD,197A PUNGGOL FIELD HDB-PUNGGOL SINGAPORE 821197,1.399774254,103.9068498,821197
197B,PUNGGOL FIELD,PUNGGOL FIELD,197B PUNGGOL FIELD HDB-PUNGGOL SINGAPORE 822197,1.400131511,103.9066476,822197
198,PUNGGOL FIELD,PUNGGOL FIELD,198 PUNGGOL FIELD CEDAN KINDERGARTEN SINGAPORE 820198,1.399509424,103.9063716,820198
199,PUNGGOL FIELD,PUNGGOL FIELD,199 PUNGGOL FIELD MULTI STOREY CAR PARK SINGAPORE 820199,1.400164306,103.9060222,820199
199A,PUNGGOL FIELD,PUNGGOL FIELD,199A PUNGGOL FIELD HDB-PUNGGOL SINGAPORE 821199,1.399772996,103.9060012,821199
199B,PUNGGOL FIELD,PUNGGOL FIELD,199B PUNGGOL FIELD HDB-PUNGGOL SINGAPORE 822199,1.39996998,103.9057512,822199
199C,PUNGGOL FIELD,PUNGGOL FIELD,199C PUNGGOL FIELD HDB-PUNGGOL SINGAPORE 823199,1.400647082,103.9060066,823199
199D,PUNGGOL FIELD,PUNGGOL FIELD,199D PUNGGOL FIELD HDB-PUNGGOL SINGAPORE 824199,1.400455442,103.9062079,824199
200,PUNGGOL FIELD,PUNGGOL FIELD,200 PUNGGOL FIELD SINGAPORE 820200,1.399287316,103.9030733,820200
201,PUNGGOL FIELD,PUNGGOL FIELD,201 PUNGGOL FIELD MULTI STOREY CAR PARK SINGAPORE 820201,1.399790631,103.9036842,820201
201A,PUNGGOL FIELD,PUNGGOL FIELD,201A PUNGGOL FIELD SINGAPORE 821201,1.400085464,103.9035356,821201
201B,PUNGGOL FIELD,PUNGGOL FIELD,201B PUNGGOL FIELD SINGAPORE 822201,1.399978043,103.9038532,822201
201C,PUNGGOL FIELD,PUNGGOL FIELD,201C PUNGGOL FIELD SINGAPORE 823201,1.399331482,103.903712,823201
201D,PUNGGOL FIELD,PUNGGOL FIELD,201D PUNGGOL FIELD SINGAPORE 824201,1.399684321,103.9033781,824201
202A,PUNGGOL FIELD,PUNGGOL FIELD,202A PUNGGOL FIELD SINGAPORE 821202,1.399664223,103.9044956,821202
202B,PUNGGOL FIELD,PUNGGOL FIELD,202B PUNGGOL FIELD SINGAPORE 822202,1.399234781,103.9042775,822202
203,PUNGGOL FIELD,PUNGGOL FIELD,203A PUNGGOL FIELD SINGAPORE 821203,1.398524282,103.9038627,821203
203A,PUNGGOL FIELD,PUNGGOL FIELD,203A PUNGGOL FIELD SINGAPORE 821203,1.398524282,103.9038627,821203
203B,PUNGGOL FIELD,PUNGGOL FIELD,203B PUNGGOL FIELD SINGAPORE 822203,1.398048415,103.9034765,822203
204,PUNGGOL FIELD,PUNGGOL FIELD,204 PUNGGOL FIELD MULTI STOREY CAR PARK SINGAPORE 820204,1.39848505,103.9030658,820204
204A,PUNGGOL FIELD,PUNGGOL FIELD,204A PUNGGOL FIELD SINGAPORE 821204,1.398778276,103.9029109,821204
204B,PUNGGOL FIELD,PUNGGOL FIELD,204B PUNGGOL FIELD SINGAPORE 822204,1.398682245,103.9032111,822204
204C,PUNGGOL FIELD,PUNGGOL FIELD,204C PUNGGOL FIELD SINGAPORE 823204,1.398033215,103.9030726,823204
204D,PUNGGOL FIELD,PUNGGOL FIELD,204D PUNGGOL FIELD SINGAPORE 824204,1.398311222,103.9025511,824204
205A,PUNGGOL FIELD,PUNGGOL FIELD,205A PUNGGOL FIELD SINGAPORE 821205,1.39852262,103.9021117,821205
226,SUMANG LANE,SUMANG LANE,226 SUMANG LANE THE VERANDAH @ MATILDA SINGAPORE 820226,1.403086557,103.8933677,820226
211,PUNGGOL WALK,PUNGGOL WALK,211 PUNGGOL WALK PUNGGOL RIPPLES SINGAPORE 820211,1.401455007,103.899421,820211
211A,PUNGGOL WALK,PUNGGOL WALK,211A PUNGGOL WALK PUNGGOL RIPPLES SINGAPORE 821211,1.401759847,103.8999443,821211
211B,PUNGGOL WALK,PUNGGOL WALK,211B PUNGGOL WALK PUNGGOL RIPPLES SINGAPORE 822211,1.401169895,103.8999209,822211
211C,PUNGGOL WALK,PUNGGOL WALK,211C PUNGGOL WALK PUNGGOL RIPPLES SINGAPORE 823211,1.400760493,103.8996136,823211
211D,PUNGGOL WALK,PUNGGOL WALK,211D PUNGGOL WALK PUNGGOL RIPPLES SINGAPORE 824211,1.400935632,103.8991985,824211
212,PUNGGOL WALK,PUNGGOL WALK,212 PUNGGOL WALK PUNGGOL WAVES SINGAPORE 820212,1.399697544,103.8991814,820212
212A,PUNGGOL WALK,PUNGGOL WALK,212A PUNGGOL WALK PUNGGOL WAVES SINGAPORE 821212,1.399960561,103.8989836,821212
212B,PUNGGOL WALK,PUNGGOL WALK,212B PUNGGOL WALK PUNGGOL WAVES SINGAPORE 822212,1.400404239,103.8994843,822212
213,PUNGGOL WALK,PUNGGOL WALK,213 PUNGGOL WALK PUNGGOL WAVES SINGAPORE 820213,1.400013616,103.8986469,820213
213A,PUNGGOL WALK,PUNGGOL WALK,213A PUNGGOL WALK PUNGGOL WAVES SINGAPORE 821213,1.400309003,103.8980751,821213
213B,PUNGGOL WALK,PUNGGOL WALK,213B PUNGGOL WALK PUNGGOL WAVES SINGAPORE 822213,1.400719621,103.8984847,822213
213C,PUNGGOL WALK,PUNGGOL WALK,213C PUNGGOL WALK PUNGGOL WAVES SINGAPORE 823213,1.400598495,103.8989202,823213
217,SUMANG WALK,SUMANG WALK,217 SUMANG WALK MATILDA PORTICO SINGAPORE 820217,1.402857593,103.8956154,820217
217A,SUMANG WALK,SUMANG WALK,217A SUMANG WALK MATILDA PORTICO SINGAPORE 821217,1.402985918,103.8950208,821217
217B,SUMANG WALK,SUMANG WALK,217B SUMANG WALK MATILDA PORTICO SINGAPORE 822217,1.402401614,103.894935,822217
217C,SUMANG WALK,SUMANG WALK,217C SUMANG WALK MATILDA PORTICO SINGAPORE 823217,1.40235851,103.8954941,823217
217D,SUMANG WALK,SUMANG WALK,217D SUMANG WALK MATILDA PORTICO SINGAPORE 824217,1.402049858,103.8961662,824217
218,SUMANG WALK,SUMANG WALK,218 SUMANG WALK MATILDA PORTICO SINGAPORE 820218,1.403227125,103.895387,820218
219,SUMANG WALK,SUMANG WALK,219 SUMANG WALK MATILDA PORTICO SINGAPORE 820219,1.402431415,103.8961988,820219
227A,SUMANG LANE,SUMANG LANE,227A SUMANG LANE THE VERANDAH @ MATILDA SINGAPORE 821227,1.403589257,103.8929587,821227
227B,SUMANG LANE,SUMANG LANE,227B SUMANG LANE THE VERANDAH @ MATILDA SINGAPORE 822227,1.403474145,103.8937238,822227
220,SUMANG LANE,SUMANG LANE,220C SUMANG LANE MATILDA EDGE SINGAPORE 823220,1.401610263,103.8960025,823220
220A,SUMANG LANE,SUMANG LANE,220A SUMANG LANE MATILDA EDGE SINGAPORE 821220,1.401523084,103.8946278,821220
220B,SUMANG LANE,SUMANG LANE,220B SUMANG LANE MATILDA EDGE SINGAPORE 822220,1.401510336,103.8954201,822220
220C,SUMANG LANE,SUMANG LANE,220C SUMANG LANE MATILDA EDGE SINGAPORE 823220,1.401610263,103.8960025,823220
221A,SUMANG LANE,SUMANG LANE,221A SUMANG LANE MATILDA EDGE SINGAPORE 821221,1.400982072,103.8956727,821221
221B,SUMANG LANE,SUMANG LANE,221B SUMANG LANE MATILDA EDGE SINGAPORE 822221,1.401019438,103.895063,822221
222,SUMANG LANE,SUMANG LANE,222 SUMANG LANE MATILDA EDGE SINGAPORE 820222,1.401112238,103.8942709,820222
222A,SUMANG LANE,SUMANG LANE,222A SUMANG LANE MATILDA EDGE SINGAPORE 821222,1.40112611,103.8934778,821222
223A,SUMANG LANE,SUMANG LANE,223A SUMANG LANE MATILDA EDGE SINGAPORE 821223,1.401263279,103.8928374,821223
224,SUMANG LANE,SUMANG LANE,224 SUMANG LANE MATILDA EDGE SINGAPORE 820224,1.401546171,103.8936056,820224
224A,SUMANG LANE,SUMANG LANE,224A SUMANG LANE MATILDA EDGE SINGAPORE 821224,1.401956216,103.8928113,821224
224B,SUMANG LANE,SUMANG LANE,224B SUMANG LANE MATILDA EDGE SINGAPORE 822224,1.401831806,103.8933737,822224
224C,SUMANG LANE,SUMANG LANE,224C SUMANG LANE MATILDA EDGE SINGAPORE 823224,1.401622845,103.8939796,823224
226A,SUMANG LANE,SUMANG LANE,226A SUMANG LANE THE VERANDAH @ MATILDA SINGAPORE 821226,1.402728129,103.8931013,821226
226B,SUMANG LANE,SUMANG LANE,226B SUMANG LANE THE VERANDAH @ MATILDA SINGAPORE 822226,1.40268498,103.893609,822226
226C,SUMANG LANE,SUMANG LANE,226C SUMANG LANE THE VERANDAH @ MATILDA SINGAPORE 823226,1.402581096,103.8940175,823226
226D,SUMANG LANE,SUMANG LANE,226D SUMANG LANE THE VERANDAH @ MATILDA SINGAPORE 824226,1.403078205,103.8936349,824226
231,SUMANG LANE,SUMANG LANE,231B SUMANG LANE MATILDA COURT SINGAPORE 822231,1.402128424,103.8914669,822231
231A,SUMANG LANE,SUMANG LANE,231A SUMANG LANE MATILDA COURT SINGAPORE 821231,1.402059178,103.8918791,821231
231B,SUMANG LANE,SUMANG LANE,231B SUMANG LANE MATILDA COURT SINGAPORE 822231,1.402128424,103.8914669,822231
232,SUMANG LANE,SUMANG LANE,232 SUMANG LANE MATILDA COURT SINGAPORE 820232,1.401784295,103.8900741,820232
232A,SUMANG LANE,SUMANG LANE,232A SUMANG LANE MATILDA COURT SINGAPORE 821232,1.402186927,103.8910433,821232
232B,SUMANG LANE,SUMANG LANE,232B SUMANG LANE MATILDA COURT SINGAPORE 822232,1.402301276,103.8906333,822232
232C,SUMANG LANE,SUMANG LANE,232C SUMANG LANE MATILDA COURT SINGAPORE 823232,1.402040357,103.8901187,823232
233,SUMANG LANE,SUMANG LANE,233 SUMANG LANE MATILDA COURT SINGAPORE 820233,1.40127043,103.8913893,820233
233A,SUMANG LANE,SUMANG LANE,233A SUMANG LANE MATILDA COURT SINGAPORE 821233,1.401581592,103.8903108,821233
233B,SUMANG LANE,SUMANG LANE,233B SUMANG LANE MATILDA COURT SINGAPORE 822233,1.401652532,103.890713,822233
233C,SUMANG LANE,SUMANG LANE,233C SUMANG LANE MATILDA COURT SINGAPORE 823233,1.401731602,103.8910415,823233
234,SUMANG LANE,SUMANG LANE,234 SUMANG LANE MATILDA COURT SINGAPORE 820234,1.401506256,103.8922368,820234
234A,SUMANG LANE,SUMANG LANE,234A SUMANG LANE MATILDA COURT SINGAPORE 821234,1.401670967,103.8918975,821234
234B,SUMANG LANE,SUMANG LANE,234B SUMANG LANE MATILDA COURT SINGAPORE 822234,1.4015204,103.8915648,822234
256,SUMANG WALK,SUMANG WALK,256 SUMANG WALK PUNGGOL OPAL SINGAPORE 820256,1.405534903,103.8955145,820256
256A,SUMANG WALK,SUMANG WALK,256A SUMANG WALK PUNGGOL OPAL SINGAPORE 821256,1.406091605,103.8957066,821256
256B,SUMANG WALK,SUMANG WALK,256B SUMANG WALK PUNGGOL OPAL SINGAPORE 822256,1.406049079,103.8961795,822256
256C,SUMANG WALK,SUMANG WALK,256C SUMANG WALK PUNGGOL OPAL SINGAPORE 823256,1.405402037,103.8959105,823256
256D,SUMANG WALK,SUMANG WALK,256D SUMANG WALK PUNGGOL OPAL SINGAPORE 824256,1.404948702,103.8960077,824256
257,SUMANG WALK,SUMANG WALK,257 SUMANG WALK PUNGGOL OPAL SINGAPORE 820257,1.405235611,103.8956418,820257
258,PUNGGOL FIELD,PUNGGOL FIELD,258A PUNGGOL FIELD PUNGGOL TOPAZ SINGAPORE 821258,1.403799309,103.8959881,821258
258A,PUNGGOL FIELD,PUNGGOL FIELD,258A PUNGGOL FIELD PUNGGOL TOPAZ SINGAPORE 821258,1.403799309,103.8959881,821258
258B,PUNGGOL FIELD,PUNGGOL FIELD,258B PUNGGOL FIELD PUNGGOL TOPAZ SINGAPORE 822258,1.403682308,103.8964614,822258
258C,PUNGGOL FIELD,PUNGGOL FIELD,258C PUNGGOL FIELD PUNGGOL TOPAZ SINGAPORE 823258,1.404141932,103.8963636,823258
259,PUNGGOL FIELD,PUNGGOL FIELD,259 PUNGGOL FIELD PUNGGOL TOPAZ SINGAPORE 820259,1.404466613,103.8953349,820259
259A,PUNGGOL FIELD,PUNGGOL FIELD,259A PUNGGOL FIELD PUNGGOL TOPAZ SINGAPORE 821259,1.4038234,103.8955478,821259
259B,PUNGGOL FIELD,PUNGGOL FIELD,259B PUNGGOL FIELD PUNGGOL TOPAZ SINGAPORE 822259,1.403878308,103.8952388,822259
259C,PUNGGOL FIELD,PUNGGOL FIELD,259C PUNGGOL FIELD PUNGGOL TOPAZ SINGAPORE 823259,1.404534086,103.8956655,823259
260A,PUNGGOL WAY,PUNGGOL WAY,260A PUNGGOL WAY PUNGGOL TOPAZ SINGAPORE 821260,1.404797138,103.8966161,821260
260B,PUNGGOL WAY,PUNGGOL WAY,260B PUNGGOL WAY PUNGGOL TOPAZ SINGAPORE 822260,1.404884893,103.8963513,822260
260C,PUNGGOL WAY,PUNGGOL WAY,260C PUNGGOL WAY PUNGGOL TOPAZ SINGAPORE 823260,1.40524575,103.8964109,823260
261,PUNGGOL WAY,PUNGGOL WAY,261 PUNGGOL WAY PUNGGOL TOPAZ SINGAPORE 820261,1.405413537,103.8968239,820261
261A,PUNGGOL WAY,PUNGGOL WAY,261A PUNGGOL WAY PUNGGOL TOPAZ SINGAPORE 821261,1.405969915,103.8968033,821261
261B,PUNGGOL WAY,PUNGGOL WAY,261B PUNGGOL WAY PUNGGOL TOPAZ SINGAPORE 822261,1.406015347,103.8965083,822261
261C,PUNGGOL WAY,PUNGGOL WAY,261C PUNGGOL WAY PUNGGOL TOPAZ SINGAPORE 823261,1.405623025,103.8964704,823261
264,PUNGGOL WAY,PUNGGOL WAY,264 PUNGGOL WAY PUNGGOL EMERALD SINGAPORE 820264,1.406140153,103.8990243,820264
264A,PUNGGOL WAY,PUNGGOL WAY,264A PUNGGOL WAY PUNGGOL EMERALD SINGAPORE 821264,1.405977041,103.8985441,821264
265A,PUNGGOL WAY,PUNGGOL WAY,265A PUNGGOL WAY PUNGGOL EMERALD SINGAPORE 821265,1.405666869,103.8987156,821265
265B,PUNGGOL WAY,PUNGGOL WAY,265B PUNGGOL WAY PUNGGOL EMERALD SINGAPORE 822265,1.405199693,103.8986626,822265
265C,PUNGGOL WAY,PUNGGOL WAY,265C PUNGGOL WAY PUNGGOL EMERALD SINGAPORE 823265,1.40499729,103.8985186,823265
265D,PUNGGOL WAY,PUNGGOL WAY,265D PUNGGOL WAY PUNGGOL EMERALD SINGAPORE 824265,1.40482605,103.8983017,824265
266,PUNGGOL WAY,PUNGGOL WAY,266 PUNGGOL WAY PUNGGOL EMERALD SINGAPORE 820266,1.405460028,103.8983542,820266
266A,PUNGGOL WAY,PUNGGOL WAY,266A PUNGGOL WAY PUNGGOL EMERALD SINGAPORE 821266,1.405960716,103.8979707,821266
266B,PUNGGOL WAY,PUNGGOL WAY,266B PUNGGOL WAY PUNGGOL EMERALD SINGAPORE 822266,1.405574739,103.8979257,822266
266C,PUNGGOL WAY,PUNGGOL WAY,266C PUNGGOL WAY PUNGGOL EMERALD SINGAPORE 823266,1.405154198,103.8978052,823266
266D,PUNGGOL WAY,PUNGGOL WAY,266D PUNGGOL WAY PUNGGOL EMERALD SINGAPORE 824266,1.404939601,103.8980368,824266
267,PUNGGOL FIELD,PUNGGOL FIELD,267 PUNGGOL FIELD PUNGGOL SAPPHIRE SINGAPORE 820267,1.404063782,103.897907,820267
267A,PUNGGOL FIELD,PUNGGOL FIELD,267A PUNGGOL FIELD PUNGGOL SAPPHIRE SINGAPORE 821267,1.404559094,103.8975049,821267
267B,PUNGGOL FIELD,PUNGGOL FIELD,267B PUNGGOL FIELD PUNGGOL SAPPHIRE SINGAPORE 822267,1.404432739,103.8979324,822267
267C,PUNGGOL FIELD,PUNGGOL FIELD,267C PUNGGOL FIELD PUNGGOL SAPPHIRE SINGAPORE 823267,1.404290802,103.8983193,823267
268,PUNGGOL FIELD,PUNGGOL FIELD,268 PUNGGOL FIELD PUNGGOL SAPPHIRE SINGAPORE 820268,1.403541088,103.8971408,820268
268A,PUNGGOL FIELD,PUNGGOL FIELD,268A PUNGGOL FIELD PUNGGOL SAPPHIRE SINGAPORE 821268,1.404111506,103.8973989,821268
268B,PUNGGOL FIELD,PUNGGOL FIELD,268B PUNGGOL FIELD PUNGGOL SAPPHIRE SINGAPORE 822268,1.403782416,103.8973001,822268
268C,PUNGGOL FIELD,PUNGGOL FIELD,268C PUNGGOL FIELD PUNGGOL SAPPHIRE SINGAPORE 823268,1.403474149,103.8979384,823268
268D,PUNGGOL FIELD,PUNGGOL FIELD,268D PUNGGOL FIELD PUNGGOL SAPPHIRE SINGAPORE 824268,1.403313781,103.8983589,824268
269,PUNGGOL FIELD,PUNGGOL FIELD,269 PUNGGOL FIELD PUNGGOL SAPPHIRE SINGAPORE 820269,1.403420234,103.899448,820269
269A,PUNGGOL FIELD,PUNGGOL FIELD,269A PUNGGOL FIELD PUNGGOL SAPPHIRE SINGAPORE 821269,1.403149047,103.8989758,821269
269B,PUNGGOL FIELD,PUNGGOL FIELD,269B PUNGGOL FIELD PUNGGOL SAPPHIRE SINGAPORE 822269,1.403443932,103.8986665,822269
269C,PUNGGOL FIELD,PUNGGOL FIELD,269C PUNGGOL FIELD PUNGGOL SAPPHIRE SINGAPORE 823269,1.403652033,103.8985316,823269
270,PUNGGOL FIELD,PUNGGOL FIELD,270 PUNGGOL FIELD PUNGGOL SAPPHIRE SINGAPORE 820270,1.40373249,103.8991301,820270
270A,PUNGGOL FIELD,PUNGGOL FIELD,270A PUNGGOL FIELD PUNGGOL SAPPHIRE SINGAPORE 821270,1.403979501,103.8994549,821270
270B,PUNGGOL FIELD,PUNGGOL FIELD,270B PUNGGOL FIELD PUNGGOL SAPPHIRE SINGAPORE 822270,1.404108025,103.8990319,822270
270C,PUNGGOL FIELD,PUNGGOL FIELD,270C PUNGGOL FIELD PUNGGOL SAPPHIRE SINGAPORE 823270,1.404315452,103.8988518,823270
271,PUNGGOL WALK,PUNGGOL WALK,271 PUNGGOL WALK PUNGGOL RESIDENCES SINGAPORE 820271,1.403431658,103.9006272,820271
271A,PUNGGOL WALK,PUNGGOL WALK,271A PUNGGOL WALK PUNGGOL RESIDENCES SINGAPORE 821271,1.403745404,103.9003189,821271
271B,PUNGGOL WALK,PUNGGOL WALK,271B PUNGGOL WALK PUNGGOL RESIDENCES SINGAPORE 822271,1.40417055,103.9005811,822271
271C,PUNGGOL WALK,PUNGGOL WALK,271C PUNGGOL WALK PUNGGOL RESIDENCES SINGAPORE 823271,1.403941659,103.9010343,823271
271D,PUNGGOL WALK,PUNGGOL WALK,271D PUNGGOL WALK PUNGGOL RESIDENCES SINGAPORE 824271,1.403514326,103.9008903,824271
272,PUNGGOL WALK,PUNGGOL WALK,272A PUNGGOL WALK PUNGGOL RESIDENCES SINGAPORE 821272,1.403145259,103.900666,821272
272A,PUNGGOL WALK,PUNGGOL WALK,272A PUNGGOL WALK PUNGGOL RESIDENCES SINGAPORE 821272,1.403145259,103.900666,821272
272B,PUNGGOL WALK,PUNGGOL WALK,272B PUNGGOL WALK PUNGGOL RESIDENCES SINGAPORE 822272,1.403295668,103.9002354,822272
272C,PUNGGOL WALK,PUNGGOL WALK,272C PUNGGOL WALK PUNGGOL RESIDENCES SINGAPORE 823272,1.402857065,103.9000672,823272
272D,PUNGGOL WALK,PUNGGOL WALK,272D PUNGGOL WALK PUNGGOL RESIDENCES SINGAPORE 824272,1.402733475,103.9004635,824272
308,PUNGGOL WALK,PUNGGOL WALK,308 PUNGGOL WALK,1.40800695,103.8990744,NIL
308A,PUNGGOL WALK,PUNGGOL WALK,308A PUNGGOL WALK WATERWAY TERRACES I SINGAPORE 821308,1.407754256,103.9009062,821308
308B,PUNGGOL WALK,PUNGGOL WALK,308B PUNGGOL WALK WATERWAY TERRACES I SINGAPORE 822308,1.407766768,103.8995809,822308
308C,PUNGGOL WALK,PUNGGOL WALK,308C PUNGGOL WALK WATERWAY TERRACES I SINGAPORE 823308,1.408006949,103.8990744,823308
310,PUNGGOL WALK,PUNGGOL WALK,310 PUNGGOL WALK WATERWAY TERRACES II SINGAPORE 820310,1.409430743,103.9007228,820310
310A,PUNGGOL WALK,PUNGGOL WALK,310A PUNGGOL WALK WATERWAY TERRACES II SINGAPORE 821310,1.408700889,103.9013266,821310
310B,PUNGGOL WALK,PUNGGOL WALK,310B PUNGGOL WALK WATERWAY TERRACES II SINGAPORE 822310,1.409322675,103.9008018,822310
310C,PUNGGOL WALK,PUNGGOL WALK,310C PUNGGOL WALK WATERWAY TERRACES II SINGAPORE 823310,1.409710961,103.8998984,823310
314,PUNGGOL WAY,PUNGGOL WAY,314 PUNGGOL WAY WATERWAY CASCADIA SINGAPORE 820314,1.408440742,103.897171,820314
314A,PUNGGOL WAY,PUNGGOL WAY,314A PUNGGOL WAY WATERWAY CASCADIA SINGAPORE 821314,1.408261878,103.8980179,821314
314B,PUNGGOL WAY,PUNGGOL WAY,314B PUNGGOL WAY WATERWAY CASCADIA SINGAPORE 822314,1.407897787,103.8973708,822314
315,PUNGGOL WAY,PUNGGOL WAY,315 PUNGGOL WAY WATERWAY CASCADIA SINGAPORE 820315,1.407955876,103.8969352,820315
315A,PUNGGOL WAY,PUNGGOL WAY,315A PUNGGOL WAY WATERWAY CASCADIA SINGAPORE 821315,1.408316774,103.897053,821315
315B,PUNGGOL WAY,PUNGGOL WAY,315B PUNGGOL WAY WATERWAY CASCADIA SINGAPORE 822315,1.407956027,103.8964008,822315
316,PUNGGOL WAY,PUNGGOL WAY,316B PUNGGOL WAY WATERWAY CASCADIA SINGAPORE 822316,1.408946658,103.8979255,822316
316A,PUNGGOL WAY,PUNGGOL WAY,316A PUNGGOL WAY WATERWAY CASCADIA SINGAPORE 821316,1.408901659,103.8984078,821316
316B,PUNGGOL WAY,PUNGGOL WAY,316B PUNGGOL WAY WATERWAY CASCADIA SINGAPORE 822316,1.408946658,103.8979255,822316
316C,PUNGGOL WAY,PUNGGOL WAY,316C PUNGGOL WAY WATERWAY CASCADIA SINGAPORE 823316,1.408975775,103.8970248,823316
316D,PUNGGOL WAY,PUNGGOL WAY,316D PUNGGOL WAY WATERWAY CASCADIA SINGAPORE 824316,1.408793114,103.8968121,824316
321,SUMANG WALK,SUMANG WALK,321A SUMANG WALK PUNGGOL BAYVIEW SINGAPORE 821321,1.410743732,103.8972493,821321
322,SUMANG WALK,SUMANG WALK,322 SUMANG WALK PUNGGOL BAYVIEW SINGAPORE 820322,1.411247035,103.8975014,820322
322A,SUMANG WALK,SUMANG WALK,322A SUMANG WALK PUNGGOL BAYVIEW SINGAPORE 821322,1.411394471,103.8970324,821322
322B,SUMANG WALK,SUMANG WALK,322B SUMANG WALK PUNGGOL BAYVIEW SINGAPORE 822322,1.410915885,103.8968867,822322
322C,SUMANG WALK,SUMANG WALK,322C SUMANG WALK PUNGGOL BAYVIEW SINGAPORE 823322,1.410519051,103.8965814,823322
322D,SUMANG WALK,SUMANG WALK,322D SUMANG WALK PUNGGOL BAYVIEW SINGAPORE 824322,1.410036287,103.8963802,824322
323A,SUMANG WALK,SUMANG WALK,323A SUMANG WALK PUNGGOL BAYVIEW SINGAPORE 821323,1.412391371,103.8982337,821323
323B,SUMANG WALK,SUMANG WALK,323B SUMANG WALK PUNGGOL BAYVIEW SINGAPORE 822323,1.412057106,103.8977616,822323
323C,SUMANG WALK,SUMANG WALK,323C SUMANG WALK PUNGGOL BAYVIEW SINGAPORE 823323,1.412666703,103.8976014,823323
323D,SUMANG WALK,SUMANG WALK,323D SUMANG WALK PUNGGOL BAYVIEW SINGAPORE 824323,1.412188117,103.8974557,824323
324,SUMANG WALK,SUMANG WALK,324 SUMANG WALK PUNGGOL BAYVIEW SINGAPORE 820324,1.413172309,103.8984192,820324
325,SUMANG WALK,SUMANG WALK,325 SUMANG WALK PUNGGOL BAYVIEW SINGAPORE 820325,1.413462032,103.8987513,820325
325A,SUMANG WALK,SUMANG WALK,325A SUMANG WALK PUNGGOL BAYVIEW SINGAPORE 821325,1.413596604,103.8981213,821325
325B,SUMANG WALK,SUMANG WALK,325B SUMANG WALK PUNGGOL BAYVIEW SINGAPORE 822325,1.413121366,103.8979273,822325
326,SUMANG WALK,SUMANG WALK,326 SUMANG WALK PUNGGOL VUE SINGAPORE 820326,1.413143525,103.8995269,820326
326A,SUMANG WALK,SUMANG WALK,326A SUMANG WALK PUNGGOL VUE SINGAPORE 821326,1.412992901,103.8993268,821326
326B,SUMANG WALK,SUMANG WALK,326B SUMANG WALK PUNGGOL VUE SINGAPORE 822326,1.41260504,103.8997332,822326
326C,SUMANG WALK,SUMANG WALK,326C SUMANG WALK PUNGGOL VUE SINGAPORE 823326,1.412404594,103.9001778,823326
327,SUMANG WALK,SUMANG WALK,327 SUMANG WALK PUNGGOL VUE SINGAPORE 820327,1.412311876,103.9000614,820327
327A,SUMANG WALK,SUMANG WALK,327A SUMANG WALK PUNGGOL VUE SINGAPORE 821327,1.412436132,103.8991336,821327
327B,SUMANG WALK,SUMANG WALK,327B SUMANG WALK PUNGGOL VUE SINGAPORE 822327,1.412255691,103.8995758,822327
327C,SUMANG WALK,SUMANG WALK,327C SUMANG WALK PUNGGOL VUE SINGAPORE 823327,1.412069303,103.8999743,823327
614,EDGEFIELD PLAINS,EDGEFIELD PLAINS,614 EDGEFIELD PLAINS PUNGGOL SPRING SINGAPORE 820614,1.403314508,103.9096798,820614
614A,EDGEFIELD PLAINS,EDGEFIELD PLAINS,614A EDGEFIELD PLAINS PUNGGOL SPRING SINGAPORE 821614,1.403584212,103.9092641,821614
614B,EDGEFIELD PLAINS,EDGEFIELD PLAINS,614B EDGEFIELD PLAINS PUNGGOL SPRING SINGAPORE 822614,1.402903237,103.9100575,822614
615,EDGEFIELD PLAINS,EDGEFIELD PLAINS,615 EDGEFIELD PLAINS PUNGGOL SPRING SINGAPORE 820615,1.40397439,103.9097879,820615
615A,EDGEFIELD PLAINS,EDGEFIELD PLAINS,615A EDGEFIELD PLAINS PUNGGOL SPRING SINGAPORE 821615,1.403860564,103.909541,821615
615B,EDGEFIELD PLAINS,EDGEFIELD PLAINS,615B EDGEFIELD PLAINS PUNGGOL SPRING SINGAPORE 822615,1.403745882,103.9098829,822615
615C,EDGEFIELD PLAINS,EDGEFIELD PLAINS,615C EDGEFIELD PLAINS PUNGGOL SPRING SINGAPORE 823615,1.403558837,103.9101535,823615
658,PUNGGOL EAST,PUNGGOL EAST,658A PUNGGOL EAST WATERWAY SUNRAY SINGAPORE 821658,1.400175685,103.9197201,821658
658A,PUNGGOL EAST,PUNGGOL EAST,658A PUNGGOL EAST WATERWAY SUNRAY SINGAPORE 821658,1.400175685,103.9197201,821658
658B,PUNGGOL EAST,PUNGGOL EAST,658B PUNGGOL EAST WATERWAY SUNRAY SINGAPORE 822658,1.400212828,103.9190528,822658
658C,PUNGGOL EAST,PUNGGOL EAST,658C PUNGGOL EAST WATERWAY SUNRAY SINGAPORE 823658,1.400549817,103.9186502,823658
659,PUNGGOL EAST,PUNGGOL EAST,659 PUNGGOL EAST WATERWAY SUNRAY SINGAPORE 820659,1.401021619,103.9195784,820659
659A,PUNGGOL EAST,PUNGGOL EAST,659A PUNGGOL EAST WATERWAY SUNRAY SINGAPORE 821659,1.400527833,103.9197574,821659
659B,PUNGGOL EAST,PUNGGOL EAST,659B PUNGGOL EAST WATERWAY SUNRAY SINGAPORE 822659,1.400746549,103.9191493,822659
659C,PUNGGOL EAST,PUNGGOL EAST,659C PUNGGOL EAST WATERWAY SUNRAY SINGAPORE 823659,1.401225385,103.9191307,823659
659D,PUNGGOL EAST,PUNGGOL EAST,659D PUNGGOL EAST WATERWAY SUNRAY SINGAPORE 824659,1.400929148,103.9188836,824659
660,EDGEDALE PLAINS,EDGEDALE PLAINS,660 EDGEDALE PLAINS WATERWAY SUNDEW SINGAPORE 820660,1.402857184,103.9167749,820660
660A,EDGEDALE PLAINS,EDGEDALE PLAINS,660A EDGEDALE PLAINS WATERWAY SUNDEW SINGAPORE 821660,1.402621973,103.9165196,821660
661,EDGEDALE PLAINS,EDGEDALE PLAINS,661 EDGEDALE PLAINS WATERWAY SUNDEW SINGAPORE 820661,1.402362738,103.9176456,820661
661A,EDGEDALE PLAINS,EDGEDALE PLAINS,661A EDGEDALE PLAINS WATERWAY SUNDEW SINGAPORE 821661,1.403030566,103.9170807,821661
661B,EDGEDALE PLAINS,EDGEDALE PLAINS,661B EDGEDALE PLAINS WATERWAY SUNDEW SINGAPORE 822661,1.402485648,103.9167514,822661
661C,EDGEDALE PLAINS,EDGEDALE PLAINS,661C EDGEDALE PLAINS WATERWAY SUNDEW SINGAPORE 823661,1.402071587,103.91748,823661
662,EDGEDALE PLAINS,EDGEDALE PLAINS,662 EDGEDALE PLAINS WATERWAY SUNDEW SINGAPORE 820662,1.401879277,103.9183987,820662
662A,EDGEDALE PLAINS,EDGEDALE PLAINS,662A EDGEDALE PLAINS WATERWAY SUNDEW SINGAPORE 821662,1.402004486,103.9183264,821662
662B,EDGEDALE PLAINS,EDGEDALE PLAINS,662B EDGEDALE PLAINS WATERWAY SUNDEW SINGAPORE 822662,1.401721537,103.918691,822662
662C,EDGEDALE PLAINS,EDGEDALE PLAINS,662C EDGEDALE PLAINS WATERWAY SUNDEW SINGAPORE 823662,1.401391816,103.9185139,823662
662D,EDGEDALE PLAINS,EDGEDALE PLAINS,662D EDGEDALE PLAINS WATERWAY SUNDEW SINGAPORE 824662,1.40167256,103.9180028,824662
668,EDGEFIELD PLAINS,EDGEFIELD PLAINS,668B EDGEFIELD PLAINS WATERWAY RIDGES SINGAPORE 822668,1.404782919,103.9129785,822668
668A,EDGEFIELD PLAINS,EDGEFIELD PLAINS,668A EDGEFIELD PLAINS WATERWAY RIDGES SINGAPORE 821668,1.405018801,103.9124119,821668
668B,EDGEFIELD PLAINS,EDGEFIELD PLAINS,668B EDGEFIELD PLAINS WATERWAY RIDGES SINGAPORE 822668,1.404782919,103.9129785,822668
669,EDGEFIELD PLAINS,EDGEFIELD PLAINS,669 EDGEFIELD PLAINS WATERWAY RIDGES SINGAPORE 820669,1.4052044,103.913815,820669
669A,EDGEFIELD PLAINS,EDGEFIELD PLAINS,669A EDGEFIELD PLAINS WATERWAY RIDGES SINGAPORE 821669,1.404909749,103.9139695,821669
669B,EDGEFIELD PLAINS,EDGEFIELD PLAINS,669B EDGEFIELD PLAINS WATERWAY RIDGES SINGAPORE 822669,1.404536069,103.9140128,822669
670,EDGEFIELD PLAINS,EDGEFIELD PLAINS,670 EDGEFIELD PLAINS WATERWAY RIDGES SINGAPORE 820670,1.405822436,103.9132458,820670
670A,EDGEFIELD PLAINS,EDGEFIELD PLAINS,670A EDGEFIELD PLAINS WATERWAY RIDGES SINGAPORE 821670,1.405383412,103.9129608,821670
670B,EDGEFIELD PLAINS,EDGEFIELD PLAINS,670B EDGEFIELD PLAINS WATERWAY RIDGES SINGAPORE 822670,1.40532418,103.9132807,822670
670C,EDGEFIELD PLAINS,EDGEFIELD PLAINS,670C EDGEFIELD PLAINS WATERWAY RIDGES SINGAPORE 823670,1.405342858,103.9139333,823670
671,EDGEFIELD PLAINS,EDGEFIELD PLAINS,671B EDGEFIELD PLAINS WATERWAY BANKS SINGAPORE 822671,1.406191183,103.9116993,822671
671A,EDGEFIELD PLAINS,EDGEFIELD PLAINS,671A EDGEFIELD PLAINS WATERWAY BANKS SINGAPORE 821671,1.406059242,103.9120207,821671
671B,EDGEFIELD PLAINS,EDGEFIELD PLAINS,671B EDGEFIELD PLAINS WATERWAY BANKS SINGAPORE 822671,1.406191183,103.9116993,822671
672,EDGEFIELD PLAINS,EDGEFIELD PLAINS,672 EDGEFIELD PLAINS WATERWAY BANKS SINGAPORE 820672,1.40706369,103.9117556,820672
672A,EDGEFIELD PLAINS,EDGEFIELD PLAINS,672A EDGEFIELD PLAINS WATERWAY BANKS SINGAPORE 821672,1.406414151,103.9126204,821672
672B,EDGEFIELD PLAINS,EDGEFIELD PLAINS,672B EDGEFIELD PLAINS WATERWAY BANKS SINGAPORE 822672,1.40665275,103.9123125,822672
672C,EDGEFIELD PLAINS,EDGEFIELD PLAINS,672C EDGEFIELD PLAINS WATERWAY BANKS SINGAPORE 823672,1.407437024,103.9111965,823672
672D,EDGEFIELD PLAINS,EDGEFIELD PLAINS,672D EDGEFIELD PLAINS WATERWAY BANKS SINGAPORE 824672,1.407590312,103.9109236,824672
673,EDGEFIELD PLAINS,EDGEFIELD PLAINS,673A EDGEFIELD PLAINS WATERWAY BANKS SINGAPORE 821673,1.406676726,103.9116133,821673
673A,EDGEFIELD PLAINS,EDGEFIELD PLAINS,673A EDGEFIELD PLAINS WATERWAY BANKS SINGAPORE 821673,1.406676726,103.9116133,821673
673B,EDGEFIELD PLAINS,EDGEFIELD PLAINS,673B EDGEFIELD PLAINS WATERWAY BANKS SINGAPORE 822673,1.406977629,103.9110415,822673
673C,EDGEFIELD PLAINS,EDGEFIELD PLAINS,673C EDGEFIELD PLAINS WATERWAY BANKS SINGAPORE 823673,1.407221594,103.9105919,823673
674,EDGEFIELD PLAINS,EDGEFIELD PLAINS,674 EDGEFIELD PLAINS WATERWAY BANKS SINGAPORE 820674,1.407213715,103.9103675,820674
682,EDGEDALE PLAINS,EDGEDALE PLAINS,682 EDGEDALE PLAINS WATERWAY VIEW SINGAPORE 820682,1.404032793,103.9157938,820682
682A,EDGEDALE PLAINS,EDGEDALE PLAINS,682A EDGEDALE PLAINS WATERWAY VIEW SINGAPORE 821682,1.403547749,103.9162913,821682
682B,EDGEDALE PLAINS,EDGEDALE PLAINS,682B EDGEDALE PLAINS WATERWAY VIEW SINGAPORE 822682,1.403411731,103.915952,822682
682C,EDGEDALE PLAINS,EDGEDALE PLAINS,682C EDGEDALE PLAINS WATERWAY VIEW SINGAPORE 823682,1.403619895,103.9155247,823682
683,EDGEDALE PLAINS,EDGEDALE PLAINS,683 EDGEDALE PLAINS WATERWAY VIEW SINGAPORE 820683,1.404152091,103.9151881,820683
683A,EDGEDALE PLAINS,EDGEDALE PLAINS,683A EDGEDALE PLAINS WATERWAY VIEW SINGAPORE 821683,1.404263444,103.9153714,821683
683B,EDGEDALE PLAINS,EDGEDALE PLAINS,683B EDGEDALE PLAINS WATERWAY VIEW SINGAPORE 822683,1.404701058,103.9149881,822683
683C,EDGEDALE PLAINS,EDGEDALE PLAINS,683C EDGEDALE PLAINS WATERWAY VIEW SINGAPORE 823683,1.404073549,103.9146487,823683
684,EDGEDALE PLAINS,EDGEDALE PLAINS,684 EDGEDALE PLAINS WATERWAY VIEW SINGAPORE 820684,1.403144479,103.9160658,820684
684A,EDGEDALE PLAINS,EDGEDALE PLAINS,684A EDGEDALE PLAINS WATERWAY VIEW SINGAPORE 821684,1.402793795,103.9158786,821684
684B,EDGEDALE PLAINS,EDGEDALE PLAINS,684B EDGEDALE PLAINS WATERWAY VIEW SINGAPORE 822684,1.403027132,103.9150056,822684
684C,EDGEDALE PLAINS,EDGEDALE PLAINS,684C EDGEDALE PLAINS WATERWAY VIEW SINGAPORE 823684,1.403492387,103.9147653,823684
684D,EDGEDALE PLAINS,EDGEDALE PLAINS,684D EDGEDALE PLAINS WATERWAY VIEW SINGAPORE 824684,1.403651736,103.9140948,824684
